[{"OBJECT_NAME":"SL-8 R/B","OBJECT_ID":"1979-089B","EPOCH":"2026-04-26T19:27:58.222656","MEAN_MOTION":14.4237964,"ECCENTRICITY":0.0015603,"INCLINATION":74.0709,"RA_OF_ASC_NODE":1.966,"ARG_OF_PERICENTER":165.4954,"MEAN_ANOMALY":194.6653,"EPHEMERIS_TYPE":0,"CLASSIFICATION_TYPE":"U","NORAD_CAT_ID":11574,"ELEMENT_SET_NO":999,"REV_AT_EPOCH":44304,"BSTAR":7.3267e-5,"MEAN_MOTION_DOT":2.16e-6,"MEAN_MOTION_DDOT":0},{"OBJECT_NAME":"SL-14 R/B","OBJECT_ID":"1980-005B","EPOCH":"2026-04-26T20:20:19.038912","MEAN_MOTION":14.9098279,"ECCENTRICITY":0.0015818,"INCLINATION":82.5127,"RA_OF_ASC_NODE":261.538,"ARG_OF_PERICENTER":8.566,"MEAN_ANOMALY":351.5826,"EPHEMERIS_TYPE":0,"CLASSIFICATION_TYPE":"U","NORAD_CAT_ID":11672,"ELEMENT_SET_NO":999,"REV_AT_EPOCH":48366,"BSTAR":5.6909e-5,"MEAN_MOTION_DOT":5.89e-6,"MEAN_MOTION_DDOT":0},{"OBJECT_NAME":"SL-8 R/B","OBJECT_ID":"1981-003B","EPOCH":"2026-04-26T20:21:24.150816","MEAN_MOTION":15.12860643,"ECCENTRICITY":0.0255765,"INCLINATION":82.9358,"RA_OF_ASC_NODE":245.4181,"ARG_OF_PERICENTER":11.3248,"MEAN_ANOMALY":349.3586,"EPHEMERIS_TYPE":0,"CLASSIFICATION_TYPE":"U","NORAD_CAT_ID":12139,"ELEMENT_SET_NO":999,"REV_AT_EPOCH":32195,"BSTAR":0.00038158,"MEAN_MOTION_DOT":0.00015337,"MEAN_MOTION_DDOT":0},{"OBJECT_NAME":"SL-3 R/B","OBJECT_ID":"1981-046B","EPOCH":"2026-04-26T18:51:31.840416","MEAN_MOTION":15.43135179,"ECCENTRICITY":0.0018519,"INCLINATION":81.231,"RA_OF_ASC_NODE":231.9325,"ARG_OF_PERICENTER":209.4344,"MEAN_ANOMALY":150.5858,"EPHEMERIS_TYPE":0,"CLASSIFICATION_TYPE":"U","NORAD_CAT_ID":12465,"ELEMENT_SET_NO":999,"REV_AT_EPOCH":44584,"BSTAR":0.00032579,"MEAN_MOTION_DOT":0.00014549,"MEAN_MOTION_DDOT":0},{"OBJECT_NAME":"SL-3 R/B","OBJECT_ID":"1981-103B","EPOCH":"2026-04-26T20:12:16.816320","MEAN_MOTION":15.21861687,"ECCENTRICITY":0.0014308,"INCLINATION":81.1584,"RA_OF_ASC_NODE":156.9342,"ARG_OF_PERICENTER":122.4464,"MEAN_ANOMALY":237.8154,"EPHEMERIS_TYPE":0,"CLASSIFICATION_TYPE":"U","NORAD_CAT_ID":12904,"ELEMENT_SET_NO":999,"REV_AT_EPOCH":98055,"BSTAR":0.00019336,"MEAN_MOTION_DOT":4.433e-5,"MEAN_MOTION_DDOT":0},{"OBJECT_NAME":"SL-3 R/B","OBJECT_ID":"1982-013B","EPOCH":"2026-04-26T19:57:39.648096","MEAN_MOTION":15.224064,"ECCENTRICITY":0.0022515,"INCLINATION":81.1713,"RA_OF_ASC_NODE":104.3172,"ARG_OF_PERICENTER":21.2051,"MEAN_ANOMALY":339.0108,"EPHEMERIS_TYPE":0,"CLASSIFICATION_TYPE":"U","NORAD_CAT_ID":13068,"ELEMENT_SET_NO":999,"REV_AT_EPOCH":41167,"BSTAR":0.00021603,"MEAN_MOTION_DOT":5.051e-5,"MEAN_MOTION_DDOT":0},{"OBJECT_NAME":"SL-3 R/B","OBJECT_ID":"1982-039B","EPOCH":"2026-04-26T19:48:16.704576","MEAN_MOTION":15.10304826,"ECCENTRICITY":0.0028514,"INCLINATION":81.148,"RA_OF_ASC_NODE":160.4347,"ARG_OF_PERICENTER":160.4369,"MEAN_ANOMALY":199.7958,"EPHEMERIS_TYPE":0,"CLASSIFICATION_TYPE":"U","NORAD_CAT_ID":13154,"ELEMENT_SET_NO":999,"REV_AT_EPOCH":38890,"BSTAR":0.00011043,"MEAN_MOTION_DOT":1.85e-5,"MEAN_MOTION_DDOT":0},{"OBJECT_NAME":"SL-3 R/B","OBJECT_ID":"1982-079B","EPOCH":"2026-04-26T19:47:22.962048","MEAN_MOTION":15.25324673,"ECCENTRICITY":0.0024131,"INCLINATION":81.1442,"RA_OF_ASC_NODE":136.2194,"ARG_OF_PERICENTER":6.6238,"MEAN_ANOMALY":353.5309,"EPHEMERIS_TYPE":0,"CLASSIFICATION_TYPE":"U","NORAD_CAT_ID":13403,"ELEMENT_SET_NO":999,"REV_AT_EPOCH":38503,"BSTAR":0.00018775,"MEAN_MOTION_DOT":4.795e-5,"MEAN_MOTION_DDOT":0},{"OBJECT_NAME":"SL-14 R/B","OBJECT_ID":"1982-092B","EPOCH":"2026-04-26T19:57:13.912992","MEAN_MOTION":14.8670622,"ECCENTRICITY":0.0021392,"INCLINATION":82.5652,"RA_OF_ASC_NODE":96.3525,"ARG_OF_PERICENTER":138.0858,"MEAN_ANOMALY":268.3532,"EPHEMERIS_TYPE":0,"CLASSIFICATION_TYPE":"U","NORAD_CAT_ID":13553,"ELEMENT_SET_NO":999,"REV_AT_EPOCH":33608,"BSTAR":5.001e-5,"MEAN_MOTION_DOT":4.71e-6,"MEAN_MOTION_DDOT":0},{"OBJECT_NAME":"SL-3 R/B","OBJECT_ID":"1983-010B","EPOCH":"2026-04-26T13:21:44.508096","MEAN_MOTION":15.47759753,"ECCENTRICITY":0.0015256,"INCLINATION":81.1008,"RA_OF_ASC_NODE":303.486,"ARG_OF_PERICENTER":238.2457,"MEAN_ANOMALY":121.7303,"EPHEMERIS_TYPE":0,"CLASSIFICATION_TYPE":"U","NORAD_CAT_ID":13819,"ELEMENT_SET_NO":999,"REV_AT_EPOCH":36534,"BSTAR":0.00030278,"MEAN_MOTION_DOT":0.00015801,"MEAN_MOTION_DDOT":0},{"OBJECT_NAME":"SL-3 R/B","OBJECT_ID":"1983-075B","EPOCH":"2026-04-26T19:14:46.655232","MEAN_MOTION":15.39487403,"ECCENTRICITY":0.0022773,"INCLINATION":97.6128,"RA_OF_ASC_NODE":123.2436,"ARG_OF_PERICENTER":60.7912,"MEAN_ANOMALY":299.5607,"EPHEMERIS_TYPE":0,"CLASSIFICATION_TYPE":"U","NORAD_CAT_ID":14208,"ELEMENT_SET_NO":999,"REV_AT_EPOCH":33755,"BSTAR":0.00029539,"MEAN_MOTION_DOT":0.00011607,"MEAN_MOTION_DDOT":0},{"OBJECT_NAME":"COSMOS 1536","OBJECT_ID":"1984-013A","EPOCH":"2026-04-26T20:13:49.139040","MEAN_MOTION":15.24464106,"ECCENTRICITY":0.0016178,"INCLINATION":82.545,"RA_OF_ASC_NODE":59.9504,"ARG_OF_PERICENTER":110.259,"MEAN_ANOMALY":250.0388,"EPHEMERIS_TYPE":0,"CLASSIFICATION_TYPE":"U","NORAD_CAT_ID":14699,"ELEMENT_SET_NO":999,"REV_AT_EPOCH":27995,"BSTAR":0.00031895,"MEAN_MOTION_DOT":7.892e-5,"MEAN_MOTION_DDOT":0},{"OBJECT_NAME":"SL-14 R/B","OBJECT_ID":"1984-027B","EPOCH":"2026-04-26T16:53:44.202048","MEAN_MOTION":14.86023403,"ECCENTRICITY":0.0018266,"INCLINATION":82.5444,"RA_OF_ASC_NODE":199.9902,"ARG_OF_PERICENTER":169.6871,"MEAN_ANOMALY":190.4724,"EPHEMERIS_TYPE":0,"CLASSIFICATION_TYPE":"U","NORAD_CAT_ID":14820,"ELEMENT_SET_NO":999,"REV_AT_EPOCH":25476,"BSTAR":4.8583e-5,"MEAN_MOTION_DOT":4.5e-6,"MEAN_MOTION_DDOT":0},{"OBJECT_NAME":"SL-8 R/B","OBJECT_ID":"1985-006B","EPOCH":"2026-04-26T11:11:28.167936","MEAN_MOTION":14.3781215,"ECCENTRICITY":0.0017191,"INCLINATION":74.0453,"RA_OF_ASC_NODE":173.2381,"ARG_OF_PERICENTER":74.8623,"MEAN_ANOMALY":26.1867,"EPHEMERIS_TYPE":0,"CLASSIFICATION_TYPE":"U","NORAD_CAT_ID":15483,"ELEMENT_SET_NO":999,"REV_AT_EPOCH":16089,"BSTAR":8.0277e-5,"MEAN_MOTION_DOT":2.16e-6,"MEAN_MOTION_DDOT":0},{"OBJECT_NAME":"SL-12 R/B(2)","OBJECT_ID":"1985-042D","EPOCH":"2026-04-26T20:54:18.848736","MEAN_MOTION":14.21995316,"ECCENTRICITY":0.0033499,"INCLINATION":71.1095,"RA_OF_ASC_NODE":345.9369,"ARG_OF_PERICENTER":48.3895,"MEAN_ANOMALY":322.9485,"EPHEMERIS_TYPE":0,"CLASSIFICATION_TYPE":"U","NORAD_CAT_ID":15772,"ELEMENT_SET_NO":999,"REV_AT_EPOCH":12124,"BSTAR":6.0221e-5,"MEAN_MOTION_DOT":8.6e-7,"MEAN_MOTION_DDOT":0},{"OBJECT_NAME":"SL-14 R/B","OBJECT_ID":"1985-069B","EPOCH":"2026-04-26T21:01:25.086720","MEAN_MOTION":14.86477872,"ECCENTRICITY":0.0019703,"INCLINATION":82.5272,"RA_OF_ASC_NODE":339.6322,"ARG_OF_PERICENTER":36.6341,"MEAN_ANOMALY":323.6219,"EPHEMERIS_TYPE":0,"CLASSIFICATION_TYPE":"U","NORAD_CAT_ID":15945,"ELEMENT_SET_NO":999,"REV_AT_EPOCH":17999,"BSTAR":4.1608e-5,"MEAN_MOTION_DOT":3.94e-6,"MEAN_MOTION_DDOT":0},{"OBJECT_NAME":"SL-16 R/B","OBJECT_ID":"1985-097B","EPOCH":"2026-04-26T20:40:10.869888","MEAN_MOTION":14.16605903,"ECCENTRICITY":0.0008032,"INCLINATION":71.0044,"RA_OF_ASC_NODE":39.135,"ARG_OF_PERICENTER":200.0742,"MEAN_ANOMALY":217.7141,"EPHEMERIS_TYPE":0,"CLASSIFICATION_TYPE":"U","NORAD_CAT_ID":16182,"ELEMENT_SET_NO":999,"REV_AT_EPOCH":9405,"BSTAR":-9.0268e-5,"MEAN_MOTION_DOT":-2.28e-6,"MEAN_MOTION_DDOT":0}]
