SL-8 R/B                
1 11574U 79089B   26116.81109054  .00000216  00000+0  73267-4 0  9992
2 11574  74.0709   1.9660 0015603 165.4954 194.6653 14.42379640443047
SL-14 R/B               
1 11672U 80005B   26116.84744258  .00000589  00000+0  56909-4 0  9992
2 11672  82.5127 261.5380 0015818   8.5660 351.5826 14.90982790483663
SL-8 R/B                
1 12139U 81003B   26116.84819619  .00015337  00000+0  38158-3 0  9996
2 12139  82.9358 245.4181 0255765  11.3248 349.3586 15.12860643321951
SL-3 R/B                
1 12465U 81046B   26116.78578519  .00014549  00000+0  32579-3 0  9994
2 12465  81.2310 231.9325 0018519 209.4344 150.5858 15.43135179445846
SL-3 R/B                
1 12904U 81103B   26116.84186130  .00004433  00000+0  19336-3 0  9994
2 12904  81.1584 156.9342 0014308 122.4464 237.8154 15.21861687980556
SL-3 R/B                
1 13068U 82013B   26116.83170889  .00005051  00000+0  21603-3 0  9997
2 13068  81.1713 104.3172 0022515  21.2051 339.0108 15.22406400411672
SL-3 R/B                
1 13154U 82039B   26116.82519334  .00001850  00000+0  11043-3 0  9992
2 13154  81.1480 160.4347 0028514 160.4369 199.7958 15.10304826388908
SL-3 R/B                
1 13403U 82079B   26116.82457132  .00004795  00000+0  18775-3 0  9990
2 13403  81.1442 136.2194 0024131   6.6238 353.5309 15.25324673385030
SL-14 R/B               
1 13553U 82092B   26116.83141103  .00000471  00000+0  50010-4 0  9996
2 13553  82.5652  96.3525 0021392 138.0858 268.3532 14.86706220336082
SL-3 R/B                
1 13819U 83010B   26116.55676514  .00015801  00000+0  30278-3 0  9996
2 13819  81.1008 303.4860 0015256 238.2457 121.7303 15.47759753365347
SL-3 R/B                
1 14208U 83075B   26116.80192888  .00011607  00000+0  29539-3 0  9993
2 14208  97.6128 123.2436 0022773  60.7912 299.5607 15.39487403337552
COSMOS 1536             
1 14699U 84013A   26116.84292985  .00007892  00000+0  31895-3 0  9992
2 14699  82.5450  59.9504 0016178 110.2590 250.0388 15.24464106279959
SL-14 R/B               
1 14820U 84027B   26116.70398382  .00000450  00000+0  48583-4 0  9992
2 14820  82.5444 199.9902 0018266 169.6871 190.4724 14.86023403254766
SL-8 R/B                
1 15483U 85006B   26116.46629824  .00000216  00000+0  80277-4 0  9993
2 15483  74.0453 173.2381 0017191  74.8623  26.1867 14.37812150160896
SL-12 R/B(2)            
1 15772U 85042D   26116.87105149  .00000086  00000+0  60221-4 0  9990
2 15772  71.1095 345.9369 0033499  48.3895 322.9485 14.21995316121245
SL-14 R/B               
1 15945U 85069B   26116.87598480  .00000394  00000+0  41608-4 0  9995
2 15945  82.5272 339.6322 0019703  36.6341 323.6219 14.86477872179998
SL-16 R/B               
1 16182U 85097B   26116.86123692 -.00000228  00000+0 -90268-4 0  9992
2 16182  71.0044  39.1350 0008032 200.0742 217.7141 14.16605903 94051
